SL-14 R/B               
1 20466U 90010B   26158.32117030  .00000398  00000+0  45240-4 0  9995
2 20466  82.5018 183.2105 0019987   9.1267 351.0307 14.83640227941777
SL-14 R/B               
1 20511U 90018B   26158.22267397  .00000452  00000+0  53660-4 0  9991
2 20511  82.5202 139.4212 0016841 152.4367 207.7744 14.82209894935847
HST                     
1 20580U 90037B   26158.29828938  .00006010  00000+0  18954-3 0  9991
2 20580  28.4712 148.1547 0001937  44.7656 315.3096 15.30642118787058
SL-16 R/B               
1 20625U 90046B   26157.62723566  .00000257  00000+0  15697-3 0  9996
2 20625  70.9979 111.1256 0014140 177.7915 182.3272 14.15020420860976
COSMOS 2084             
1 20663U 90055A   26157.37190060  .00002460  00000+0  18125-3 0  9994
2 20663  62.7909  33.0039 0005571 259.1304 100.9169 15.06072304949671
SL-6 R/B(2)             
1 20666U 90055D   26158.14261570  .00001961  00000+0  15380-3 0  9993
2 20666  62.7841 309.5560 0039044   3.7613 356.3772 15.03969781951645
SL-8 R/B                
1 20775U 90078B   26157.53258888  .00019142  00000+0  53935-3 0  9997
2 20775  82.9017 171.2678 0352993  74.3044 289.6817 14.91925991822536
SL-8 R/B                
1 21088U 91006B   26158.10203869  .00000050  00000+0  34393-4 0  9996
2 21088  82.9418 103.5359 0023225 141.5288 229.3870 13.77505131776387
OKEAN-3                 
1 21397U 91039A   26157.63579232  .00002409  00000+0  16621-3 0  9995
2 21397  82.5166 250.6130 0014692  34.1296 326.0872 15.05281228878416
COSMOS 2151             
1 21422U 91042A   26158.25635209  .00001583  00000+0  12358-3 0  9999
2 21422  82.4962 357.2657 0013697 113.7686 246.4976 15.00411063876625
SL-14 R/B               
1 21423U 91042B   26158.22712034  .00000455  00000+0  54487-4 0  9996
2 21423  82.4921 136.2360 0015768 310.6410  49.3432 14.81896277866337
ERS-1                   
1 21574U 91050A   26158.29473187  .00000285  00000+0  10569-3 0  9995
2 21574  98.7800 178.7509 0030813 297.4986  62.3070 14.39510978828621
ARIANE 40 R/B           
1 21610U 91050F   26157.64760312  .00000305  00000+0  10350-3 0  9994
2 21610  98.1879 206.4744 0003771 144.6128 215.5314 14.42950877831825
INTERCOSMOS 25          
1 21819U 91086A   26157.54743627  .00000773  00000+0  15383-3 0  9993
2 21819  82.6057 256.2481 1484428 285.3665  58.8577 12.12183565507450
SL-8 R/B                
1 21876U 92008B   26157.66618826  .00000054  00000+0  39875-4 0  9991
2 21876  82.9269 201.6098 0033314 245.0382 233.2779 13.75974083721657
SL-8 R/B                
1 21938U 92020B   26158.07861426  .00000066  00000+0  52543-4 0  9996
2 21938  82.9304  87.3653 0030275  49.9613 320.8465 13.75547903713421
USA 81                  
1 21949U 92023A   26158.07582816  .00000186  00000+0  61316-4 0  9995
2 21949  85.0077  79.8428 0002735  93.8531 266.2974 14.32395441107581
COSMOS 2219             
1 22219U 92076A   26157.79217611 -.00000080  00000+0 -17357-4 0  9991
2 22219  71.0578 191.8031 0016120  61.1295 299.1443 14.14095586730974
SL-16 R/B               
1 22220U 92076B   26158.30913459 -.00000195  00000+0 -73458-4 0  9995
2 22220  71.0008 359.5909 0014425 311.5990 221.2919 14.16872334734526
COSMOS 2221             
1 22236U 92080A   26157.84203780  .00001478  00000+0  12771-3 0  9997
2 22236  82.5036 193.6760 0012640 250.4312 109.5545 14.96507463794120
SL-16 R/B               
1 22285U 92093B   26157.78337103 -.00000066  00000+0 -94343-5 0  9996
2 22285  71.0202 177.2320 0004525 202.6785 157.4139 14.15464998725769
COSMOS 2228             
1 22286U 92094A   26158.26565864  .00002722  00000+0  23039-3 0  9990
2 22286  82.5170 151.5463 0017881   6.3935 353.7512 14.97551784789462
SL-16 R/B               
1 22566U 93016B   26157.62097889  .00000008  00000+0  28809-4 0  9998
2 22566  71.0080  28.4009 0010901 198.9571 161.1148 14.15308578714751
COSMOS 2242             
1 22626U 93024A   26158.02005220  .00001710  00000+0  14651-3 0  9997
2 22626  82.5180 181.2700 0016362  11.0731 349.0848 14.96873384793754
SL-16 R/B               
1 22803U 93059B   26158.32633768  .00000154  00000+0  99830-4 0  9993
2 22803  70.9883 182.0988 0014972  71.2369 289.0378 14.17243986692233
ARIANE 40 R/B           
1 22830U 93061H   26157.94064304  .00000211  00000+0  93062-4 0  9992
2 22830  98.4821 225.0103 0011109  26.4411 333.7338 14.32903576706881
COSMOS 2278             
1 23087U 94023A   26158.27500107  .00000394  00000+0  23061-3 0  9992
2 23087  71.0541 347.6650 0010613 254.4139 105.5813 14.14392155657477
SL-16 R/B               
1 23088U 94023B   26157.64494799  .00000121  00000+0  87264-4 0  9996
2 23088  70.9996 244.0707 0003434 198.1009 161.9992 14.15018806658672
SL-16 R/B               
1 23343U 94074B   26158.33127785  .00000482  00000+0  71071-4 0  9990
2 23343  97.6995 185.4625 0005206 295.1415  75.8545 14.79494222700503
SL-16 R/B               
1 23405U 94077B   26158.29845554 -.00000294  00000+0 -12595-3 0  9996
2 23405  70.9806 163.9669 0002616 333.4307  26.6681 14.15573834628910
